NORAD_CAT_ID,OBJECT_NAME,OBJECT_TYPE,EPOCH,MEAN_MOTION,ECCENTRICITY,INCLINATION,RA_OF_ASC_NODE,ARG_OF_PERICENTER,MEAN_ANOMALY,BSTAR,MEAN_MOTION_DOT,MEAN_MOTION_DDOT,TLE_LINE0,TLE_LINE1,TLE_LINE2,SEMIMAJOR_AXIS,PERIOD,APOGEE,PERIGEE,DECAYED
53017.0,STARLINK-4281,PAYLOAD,2023-07-12 12:53:38,15.08842129,0.0001166,53.2174,123.7895,95.0157,265.0969,3.3665e-05,2.48e-06,0.0,0 STARLINK-4281,1 53017U 22076AH  23193.53725596  .00000248  00000-0  33665-4 0  9994,2 53017  53.2174 123.7895 0001166  95.0157 265.0969 15.08842129 56846,6917.874,95.437,540.546,538.932,0.0
53017.0,STARLINK-4281,PAYLOAD,2023-07-14 04:38:17,15.0884267,0.000139,53.2173,116.3548,96.5961,263.519,7.4888e-05,9.04e-06,0.0,0 STARLINK-4281,1 53017U 22076AH  23195.19325478  .00000904  00000-0  74888-4 0  9994,2 53017  53.2173 116.3548 0001390  96.5961 263.5190 15.08842670 57094,6917.872,95.437,540.699,538.776,0.0
53017.0,STARLINK-4281,PAYLOAD,2023-07-15 01:18:18,15.08834091,9.38e-05,53.2175,112.4881,103.3479,256.7617,0.00018352,2.634e-05,0.0,0 STARLINK-4281,1 53017U 22076AH  23196.05437661  .00002634  00000-0  18352-3 0  9993,2 53017  53.2175 112.4881 0000938 103.3479 256.7617 15.08834091 57222,6917.898,95.438,540.412,539.115,0.0
53017.0,STARLINK-4281,PAYLOAD,2023-07-15 04:29:02,15.08905122,0.0001137,53.2181,111.8941,85.5929,274.5194,-0.0007019,-0.00011461,0.0,0 STARLINK-4281,1 53017U 22076AH  23196.18683715 -.00011461  00000-0 -70190-3 0  9998,2 53017  53.2181 111.8941 0001137  85.5929 274.5194 15.08905122 57246,6917.681,95.433,540.333,538.76,0.0
53017.0,STARLINK-4281,PAYLOAD,2023-07-15 18:47:33,15.08833158,9.27e-05,53.2172,109.2181,99.0981,261.0116,-3.5766e-05,-8.57e-06,0.0,0 STARLINK-4281,1 53017U 22076AH  23196.78302398 -.00000857  00000-0 -35766-4 0  9997,2 53017  53.2172 109.2181 0000927  99.0981 261.0116 15.08833158 57331,6917.901,95.438,540.408,539.125,0.0
53017.0,STARLINK-4281,PAYLOAD,2023-07-16 02:44:28,15.08841356,0.0001069,53.2164,107.7329,94.9616,265.1498,1.6745e-05,-2.1e-07,0.0,0 STARLINK-4281,1 53017U 22076AH  23197.11421797 -.00000021  00000-0  16745-4 0  9998,2 53017  53.2164 107.7329 0001069  94.9616 265.1498 15.08841356 57388,6917.876,95.437,540.481,539.002,0.0
53017.0,STARLINK-4281,PAYLOAD,2023-07-16 18:38:20,15.0883524,0.0001246,53.2174,104.7616,109.919,250.1937,-5.9421e-05,-1.233e-05,0.0,0 STARLINK-4281,1 53017U 22076AH  23197.77662698 -.00001233  00000-0 -59421-4 0  9992,2 53017  53.2174 104.7616 0001246 109.9190 250.1937 15.08835240 57484,6917.895,95.438,540.622,538.898,0.0
53017.0,STARLINK-4281,PAYLOAD,2023-07-17 10:32:11,15.08845233,0.0001182,53.2178,101.7883,100.5911,259.5214,7.7326e-06,-1.65e-06,0.0,0 STARLINK-4281,1 53017U 22076AH  23198.43902008 -.00000165  00000-0  77326-5 0  9995,2 53017  53.2178 101.7883 0001182 100.5911 259.5214 15.08845233 57583,6917.864,95.437,540.547,538.912,0.0
53017.0,STARLINK-4281,PAYLOAD,2023-07-18 04:01:25,15.08854059,0.0001233,53.2178,98.5174,109.3215,250.791,0.00024532,3.62e-05,0.0,0 STARLINK-4281,1 53017U 22076AH  23199.16765135  .00003620  00000-0  24532-3 0  9991,2 53017  53.2178  98.5174 0001233 109.3215 250.7910 15.08854059 57694,6917.837,95.437,540.555,538.849,0.0
53017.0,STARLINK-4281,PAYLOAD,2023-07-18 16:44:31,15.08842813,0.000165,53.2176,96.1387,95.0137,265.1043,0.00018057,2.587e-05,0.0,0 STARLINK-4281,1 53017U 22076AH  23199.69758144  .00002587  00000-0  18057-3 0  9997,2 53017  53.2176  96.1387 0001650  95.0137 265.1043 15.08842813 57770,6917.872,95.437,540.878,538.595,0.0
53017.0,STARLINK-4281,PAYLOAD,2023-07-18 21:30:40,15.08838393,0.0001096,53.2166,95.2457,87.9782,272.1336,0.0001201,1.624e-05,0.0,0 STARLINK-4281,1 53017U 22076AH  23199.89630363  .00001624  00000-0  12010-3 0  9995,2 53017  53.2166  95.2457 0001096  87.9782 272.1336 15.08838393 57802,6917.885,95.438,540.509,538.992,0.0
53017.0,STARLINK-4281,PAYLOAD,2023-07-20 16:26:05,15.08838485,0.0001137,53.2163,87.2166,80.9176,279.1944,0.0001263,1.723e-05,0.0,0 STARLINK-4281,1 53017U 22076AH  23201.68478778  .00001723  00000-0  12630-3 0  9994,2 53017  53.2163  87.2166 0001137  80.9176 279.1944 15.08838485 58077,6917.885,95.438,540.537,538.963,0.0
53017.0,STARLINK-4281,PAYLOAD,2023-07-21 01:58:23,15.08845206,0.0001127,53.2167,85.4327,81.7403,278.3717,0.00018121,2.598e-05,0.0,0 STARLINK-4281,1 53017U 22076AH  23202.08222178  .00002598  00000-0  18121-3 0  9992,2 53017  53.2167  85.4327 0001127  81.7403 278.3717 15.08845206 58136,6917.864,95.437,540.509,538.95,0.0
53017.0,STARLINK-4281,PAYLOAD,2023-07-21 16:16:52,15.08840909,0.0001439,53.2173,82.755,86.1511,273.9645,8.3946e-05,1.048e-05,0.0,0 STARLINK-4281,1 53017U 22076AH  23202.67838831  .00001048  00000-0  83946-4 0  9993,2 53017  53.2173  82.7550 0001439  86.1511 273.9645 15.08840909 58222,6917.878,95.437,540.738,538.747,0.0
53017.0,STARLINK-4281,PAYLOAD,2023-07-24 01:30:46,15.08830734,0.0001397,53.2184,72.0492,83.6882,276.4269,-2.0483e-05,-6.14e-06,0.0,0 STARLINK-4281,1 53017U 22076AH  23205.06303922 -.00000614  00000-0 -20483-4 0  9994,2 53017  53.2184  72.0492 0001397  83.6882 276.4269 15.08830734 58121,6917.909,95.438,540.74,538.807,0.0
53017.0,STARLINK-4281,PAYLOAD,2023-07-24 23:46:09,15.08851056,0.0001226,53.217,67.8862,115.0997,245.0123,2.6568e-05,1.35e-06,0.0,0 STARLINK-4281,1 53017U 22076AH  23205.99038521  .00000135  00000-0  26568-4 0  9992,2 53017  53.2170  67.8862 0001226 115.0997 245.0123 15.08851056 58263,6917.847,95.437,540.56,538.863,0.0
53017.0,STARLINK-4281,PAYLOAD,2023-07-26 01:12:20,15.08841629,0.0001017,53.2167,63.1309,96.5459,263.5649,0.00012284,1.668e-05,0.0,0 STARLINK-4281,1 53017U 22076AH  23207.05023304  .00001668  00000-0  12284-3 0  9995,2 53017  53.2167  63.1309 0001017  96.5459 263.5649 15.08841629 58429,6917.875,95.437,540.444,539.037,0.0
53017.0,STARLINK-4281,PAYLOAD,2023-07-26 17:06:11,15.08846459,0.0001118,53.2156,60.1565,72.7316,287.3798,5.1198e-05,5.27e-06,0.0,0 STARLINK-4281,1 53017U 22076AH  23207.71263188  .00000527  00000-0  51198-4 0  9995,2 53017  53.2156  60.1565 0001118  72.7316 287.3798 15.08846459 58984,6917.861,95.437,540.499,538.952,0.0
53017.0,STARLINK-4281,PAYLOAD,2023-07-26 20:16:57,15.08852159,0.0001318,53.2153,59.5607,91.1768,268.9375,8.9004e-05,1.129e-05,0.0,0 STARLINK-4281,1 53017U 22076AH  23207.84510627  .00001129  00000-0  89004-4 0  9998,2 53017  53.2153  59.5607 0001318  91.1768 268.9375 15.08852159 58540,6917.843,95.437,540.62,538.796,0.0
53017.0,STARLINK-4281,PAYLOAD,2023-07-27 07:24:40,15.08824116,0.0001155,53.2163,57.4793,76.8057,283.3064,-0.00013748,-2.474e-05,0.0,0 STARLINK-4281,1 53017U 22076AH  23208.30880040 -.00002474  00000-0 -13748-3 0  9996,2 53017  53.2163  57.4793 0001155  76.8057 283.3064 15.08824116 59071,6917.929,95.439,540.593,538.995,0.0
53017.0,STARLINK-4281,PAYLOAD,2023-07-27 20:07:45,15.08826409,6.96e-05,53.217,55.1013,62.6621,297.4442,-0.00011533,-2.122e-05,0.0,0 STARLINK-4281,1 53017U 22076AH  23208.83872275 -.00002122  00000-0 -11533-3 0  9995,2 53017  53.2170  55.1013 0000696  62.6621 297.4442 15.08826409 58698,6917.922,95.438,540.268,539.305,0.0
53017.0,STARLINK-4281,PAYLOAD,2023-07-28 13:36:59,15.08839815,0.0001006,53.2179,51.8292,69.4489,290.6611,0.00013116,1.8e-05,0.0,0 STARLINK-4281,1 53017U 22076AH  23209.56735817  .00001800  00000-0  13116-3 0  9995,2 53017  53.2179  51.8292 0001006  69.4489 290.6611 15.08839815 58803,6917.881,95.438,540.442,539.05,0.0
53017.0,STARLINK-4281,PAYLOAD,2023-07-28 19:58:31,15.08848921,9.8e-05,53.2165,50.64,68.1941,291.9155,0.00015538,2.187e-05,0.0,0 STARLINK-4281,1 53017U 22076AH  23209.83231354  .00002187  00000-0  15538-3 0  9991,2 53017  53.2165  50.6400 0000980  68.1941 291.9155 15.08848921 59306,6917.853,95.437,540.396,539.04,0.0
53017.0,STARLINK-4281,PAYLOAD,2023-07-29 23:00:04,15.08857316,0.0001006,53.2172,45.5848,66.6733,293.4365,0.00030979,4.648e-05,0.0,0 STARLINK-4281,1 53017U 22076AH  23210.95838715  .00004648  00000-0  30979-3 0  9990,2 53017  53.2172  45.5848 0001006  66.6733 293.4365 15.08857316 59471,6917.827,95.436,540.388,538.997,0.0
53017.0,STARLINK-4281,PAYLOAD,2023-07-30 08:32:24,15.08838912,8.83e-05,53.217,43.8004,86.2042,273.9051,-6.9667e-05,-1.396e-05,0.0,0 STARLINK-4281,1 53017U 22076AH  23211.35583506 -.00001396  00000-0 -69667-4 0  9996,2 53017  53.2170  43.8004 0000883  86.2042 273.9051 15.08838912 59530,6917.884,95.438,540.36,539.138,0.0
53017.0,STARLINK-4281,PAYLOAD,2023-07-30 22:50:51,15.08847035,0.0001068,53.2166,41.1242,79.0501,281.0611,0.00010095,1.319e-05,0.0,0 STARLINK-4281,1 53017U 22076AH  23211.95199061  .00001319  00000-0  10095-3 0  9994,2 53017  53.2166  41.1242 0001068  79.0501 281.0611 15.08847035 59624,6917.859,95.437,540.463,538.985,0.0
53017.0,STARLINK-4281,PAYLOAD,2023-07-31 05:12:24,15.08838711,9.33e-05,53.217,39.9331,70.7627,289.3466,-1.4259e-05,-5.15e-06,0.0,0 STARLINK-4281,1 53017U 22076AH  23212.21695219 -.00000515  00000-0 -14259-4 0  9996,2 53017  53.2170  39.9331 0000933  70.7627 289.3466 15.08838711 59664,6917.884,95.438,540.395,539.104,0.0
53017.0,STARLINK-4281,PAYLOAD,2023-08-01 11:24:44,15.08833356,9.45e-05,53.2165,34.2857,89.6034,270.5066,9.711e-05,1.258e-05,0.0,0 STARLINK-4281,1 53017U 22076AH  23213.47552054  .00001258  00000-0  97110-4 0  9994,2 53017  53.2165  34.2857 0000945  89.6034 270.5066 15.08833356 59852,6917.901,95.438,540.419,539.112,0.0
53017.0,STARLINK-4281,PAYLOAD,2023-08-02 17:37:04,15.0884641,9.41e-05,53.2164,28.6357,91.7488,268.3612,0.00026446,3.924e-05,0.0,0 STARLINK-4281,1 53017U 22076AH  23214.73407712  .00003924  00000-0  26446-3 0  9999,2 53017  53.2164  28.6357 0000941  91.7488 268.3612 15.08846410 60046,6917.861,95.437,540.377,539.075,0.0
53017.0,STARLINK-4281,PAYLOAD,2023-08-03 11:06:18,15.08839984,0.0001064,53.2166,25.3646,81.7455,278.3657,8.6824e-05,1.094e-05,0.0,0 STARLINK-4281,1 53017U 22076AH  23215.46271955  .00001094  00000-0  86824-4 0  9991,2 53017  53.2166  25.3646 0001064  81.7455 278.3657 15.08839984 60153,6917.88,95.438,540.482,539.009,0.0
